NORAD_CAT_ID,OBJECT_NAME,OBJECT_TYPE,EPOCH,MEAN_MOTION,ECCENTRICITY,INCLINATION,RA_OF_ASC_NODE,ARG_OF_PERICENTER,MEAN_ANOMALY,BSTAR,MEAN_MOTION_DOT,MEAN_MOTION_DDOT,TLE_LINE0,TLE_LINE1,TLE_LINE2,SEMIMAJOR_AXIS,PERIOD,APOGEE,PERIGEE,DECAYED
52343.0,STARLINK-3849,PAYLOAD,2024-06-08 09:06:12,15.08849067,0.0001444,53.2154,199.0983,95.035,265.0807,0.00022252,3.256e-05,0.0,0 STARLINK-3849,1 52343U 22045N   24160.37931065  .00003256  00000-0  22252-3 0  9999,2 52343  53.2154 199.0983 0001444  95.0350 265.0807 15.08849067119134,6917.853,95.437,540.717,538.719,0.0
52343.0,STARLINK-3849,PAYLOAD,2024-06-09 05:46:13,15.0883269,0.0001318,53.2122,195.2313,91.5311,268.5832,-9.7351e-05,-1.837e-05,0.0,0 STARLINK-3849,1 52343U 22045N   24161.24043894 -.00001837  00000-0 -97351-4 0  9998,2 52343  53.2122 195.2313 0001318  91.5311 268.5832 15.08832690119266,6917.903,95.438,540.68,538.856,0.0
52343.0,STARLINK-3849,PAYLOAD,2024-06-09 12:07:46,15.08832775,0.0001367,53.2158,194.0432,86.413,273.7018,-5.1624e-05,-1.109e-05,0.0,0 STARLINK-3849,1 52343U 22045N   24161.50540475 -.00001109  00000-0 -51624-4 0  9999,2 52343  53.2158 194.0432 0001367  86.4130 273.7018 15.08832775119303,6917.902,95.438,540.713,538.822,0.0
52343.0,STARLINK-3849,PAYLOAD,2024-06-10 08:47:47,15.08842379,0.0001467,53.2163,190.1754,97.5624,262.5535,3.1224e-05,2.09e-06,0.0,0 STARLINK-3849,1 52343U 22045N   24162.36651820  .00000209  00000-0  31224-4 0  9993,2 52343  53.2163 190.1754 0001467  97.5624 262.5535 15.08842379119430,6917.873,95.437,540.753,538.723,0.0
52343.0,STARLINK-3849,PAYLOAD,2024-06-10 18:20:06,15.08841659,0.0001402,53.2163,188.3915,95.7592,264.356,5.3269e-05,5.6e-06,0.0,0 STARLINK-3849,1 52343U 22045N   24162.76395848  .00000560  00000-0  53269-4 0  9995,2 52343  53.2163 188.3915 0001402  95.7592 264.3560 15.08841659119495,6917.875,95.437,540.71,538.77,0.0
52343.0,STARLINK-3849,PAYLOAD,2024-06-11 05:27:48,15.08835469,0.0001333,53.216,186.3123,103.0861,257.028,0.00017426,2.486e-05,0.0,0 STARLINK-3849,1 52343U 22045N   24163.22764217  .00002486  00000-0  17426-3 0  9990,2 52343  53.2160 186.3123 0001333 103.0861 257.0280 15.08835469119564,6917.894,95.438,540.681,538.837,0.0
52343.0,STARLINK-3849,PAYLOAD,2024-06-11 08:38:34,15.08837305,0.0001343,53.2159,185.7176,103.4371,256.677,0.00019463,2.811e-05,0.0,0 STARLINK-3849,1 52343U 22045N   24163.36012196  .00002811  00000-0  19463-3 0  9992,2 52343  53.2159 185.7176 0001343 103.4371 256.6770 15.08837305119586,6917.889,95.438,540.683,538.825,0.0
52343.0,STARLINK-3849,PAYLOAD,2024-06-12 06:53:59,15.08834996,0.0001382,53.2161,181.5549,103.2084,256.9063,4.3535e-05,4.05e-06,0.0,0 STARLINK-3849,1 52343U 22045N   24164.28748922  .00000405  00000-0  43535-4 0  9992,2 52343  53.2161 181.5549 0001382 103.2084 256.9063 15.08834996119726,6917.896,95.438,540.717,538.805,0.0
52343.0,STARLINK-3849,PAYLOAD,2024-06-12 11:40:08,15.08835871,0.0001376,53.2161,180.6623,100.8781,259.2366,3.7702e-05,3.12e-06,0.0,0 STARLINK-3849,1 52343U 22045N   24164.48620848  .00000312  00000-0  37702-4 0  9996,2 52343  53.2161 180.6623 0001376 100.8781 259.2366 15.08835871119757,6917.893,95.438,540.71,538.806,0.0
52343.0,STARLINK-3849,PAYLOAD,2024-06-12 18:01:40,15.08836742,0.0001372,53.2164,179.4728,99.1569,260.9578,4.2115e-05,3.82e-06,0.0,0 STARLINK-3849,1 52343U 22045N   24164.75116823  .00000382  00000-0  42115-4 0  9990,2 52343  53.2164 179.4728 0001372  99.1569 260.9578 15.08836742119798,6917.89,95.438,540.704,538.806,0.0
52343.0,STARLINK-3849,PAYLOAD,2024-06-13 09:55:31,15.08842134,0.0001311,53.2158,176.4986,94.7484,265.3658,5.7222e-05,6.23e-06,0.0,0 STARLINK-3849,1 52343U 22045N   24165.41356442  .00000623  00000-0  57222-4 0  9990,2 52343  53.2158 176.4986 0001311  94.7484 265.3658 15.08842134119895,6917.874,95.437,540.646,538.832,0.0
52343.0,STARLINK-3849,PAYLOAD,2024-06-14 08:10:56,15.08838731,0.0001242,53.2154,172.3347,90.845,269.2685,7.9828e-05,9.83e-06,0.0,0 STARLINK-3849,1 52343U 22045N   24166.34092726  .00000983  00000-0  79828-4 0  9990,2 52343  53.2154 172.3347 0001242  90.8450 269.2685 15.08838731120039,6917.884,95.438,540.608,538.89,0.0
52343.0,STARLINK-3849,PAYLOAD,2024-06-14 17:43:14,15.08840938,0.000125,53.2156,170.5506,90.8779,269.2356,8.8582e-05,1.122e-05,0.0,0 STARLINK-3849,1 52343U 22045N   24166.73836590  .00001122  00000-0  88582-4 0  9991,2 52343  53.2156 170.5506 0001250  90.8779 269.2356 15.08840938120094,6917.878,95.437,540.607,538.878,0.0
52343.0,STARLINK-3849,PAYLOAD,2024-06-15 06:26:19,15.0884575,0.0001257,53.2155,168.1714,90.8234,269.2902,9.2441e-05,1.184e-05,0.0,0 STARLINK-3849,1 52343U 22045N   24167.26828195  .00001184  00000-0  92441-4 0  9999,2 52343  53.2155 168.1714 0001257  90.8234 269.2902 15.08845750120173,6917.863,95.437,540.597,538.858,0.0
52343.0,STARLINK-3849,PAYLOAD,2024-06-15 17:34:01,15.08846339,0.0001252,53.2156,166.0899,90.6653,269.4483,0.00010151,1.328e-05,0.0,0 STARLINK-3849,1 52343U 22045N   24167.73196011  .00001328  00000-0  10151-3 0  9993,2 52343  53.2156 166.0899 0001252  90.6653 269.4483 15.08846339120241,6917.861,95.437,540.592,538.86,0.0
52343.0,STARLINK-3849,PAYLOAD,2024-06-16 06:17:06,15.0884742,0.0001272,53.2157,163.7108,91.8484,268.2654,0.0001038,1.365e-05,0.0,0 STARLINK-3849,1 52343U 22045N   24168.26187792  .00001365  00000-0  10380-3 0  9993,2 52343  53.2157 163.7108 0001272  91.8484 268.2654 15.08847420120324,6917.858,95.437,540.603,538.843,0.0
52343.0,STARLINK-3849,PAYLOAD,2024-06-17 09:18:39,15.08841198,0.0001312,53.2157,158.6551,94.705,265.4091,4.1366e-06,-2.22e-06,0.0,0 STARLINK-3849,1 52343U 22045N   24169.38796285 -.00000222  00000-0  41366-5 0  9992,2 52343  53.2157 158.6551 0001312  94.7050 265.4091 15.08841198120493,6917.877,95.437,540.649,538.834,0.0
52343.0,STARLINK-3849,PAYLOAD,2024-06-18 04:23:17,15.0883672,0.0001319,53.2157,155.0865,94.3739,265.7404,-3.4658e-05,-8.39e-06,0.0,0 STARLINK-3849,1 52343U 22045N   24170.18284617 -.00000839  00000-0 -34658-4 0  9993,2 52343  53.2157 155.0865 0001319  94.3739 265.7404 15.08836720120619,6917.89,95.438,540.668,538.843,0.0
52343.0,STARLINK-3849,PAYLOAD,2024-06-18 09:09:27,15.08836974,0.0001327,53.2158,154.1957,93.6245,266.4899,-8.4306e-06,-4.22e-06,0.0,0 STARLINK-3849,1 52343U 22045N   24170.38156556 -.00000422  00000-0 -84306-5 0  9999,2 52343  53.2158 154.1957 0001327  93.6245 266.4899 15.08836974120645,6917.89,95.438,540.673,538.837,0.0
52343.0,STARLINK-3849,PAYLOAD,2024-06-18 15:30:59,15.08835227,0.0001303,53.2158,153.0059,92.1962,267.9179,3.3962e-06,-2.34e-06,0.0,0 STARLINK-3849,1 52343U 22045N   24170.64652673 -.00000234  00000-0  33962-5 0  9991,2 52343  53.2158 153.0059 0001303  92.1962 267.9179 15.08835227120681,6917.895,95.438,540.661,538.859,0.0
52343.0,STARLINK-3849,PAYLOAD,2024-06-19 05:49:28,15.08832376,0.0001304,53.2157,150.3301,93.5511,266.5631,3.3487e-05,2.45e-06,0.0,0 STARLINK-3849,1 52343U 22045N   24171.24268987  .00000245  00000-0  33487-4 0  9991,2 52343  53.2157 150.3301 0001304  93.5511 266.5631 15.08832376120776,6917.904,95.438,540.671,538.867,0.0
52343.0,STARLINK-3849,PAYLOAD,2024-06-19 21:43:19,15.088342,0.0001345,53.2161,147.3563,90.4546,269.6601,6.0656e-05,6.77e-06,0.0,0 STARLINK-3849,1 52343U 22045N   24171.90509038  .00000677  00000-0  60656-4 0  9996,2 52343  53.2161 147.3563 0001345  90.4546 269.6601 15.08834200120876,6917.898,95.438,540.694,538.833,0.0
52343.0,STARLINK-3849,PAYLOAD,2024-06-20 07:15:38,15.08841168,0.0001375,53.2163,145.5725,91.66,268.4549,9.2336e-05,1.182e-05,0.0,0 STARLINK-3849,1 52343U 22045N   24172.30252587  .00001182  00000-0  92336-4 0  9997,2 52343  53.2163 145.5725 0001375  91.6600 268.4549 15.08841168120931,6917.877,95.437,540.693,538.791,0.0
52343.0,STARLINK-3849,PAYLOAD,2024-06-21 03:55:39,15.08836171,0.0001435,53.2166,141.7072,95.9953,264.1203,3.5502e-05,2.77e-06,0.0,0 STARLINK-3849,1 52343U 22045N   24173.16365255  .00000277  00000-0  35502-4 0  9995,2 52343  53.2166 141.7072 0001435  95.9953 264.1203 15.08836171121065,6917.892,95.438,540.75,538.764,0.0
52343.0,STARLINK-3849,PAYLOAD,2024-06-21 07:06:25,15.08836971,0.0001407,53.2162,141.1118,91.0463,269.0691,3.5836e-05,2.82e-06,0.0,0 STARLINK-3849,1 52343U 22045N   24173.29613237  .00000282  00000-0  35836-4 0  9991,2 52343  53.2162 141.1118 0001407  91.0463 269.0691 15.08836971121083,6917.89,95.438,540.728,538.781,0.0
52343.0,STARLINK-3849,PAYLOAD,2024-06-22 05:21:49,15.08843448,0.0001538,53.2169,136.9479,86.0568,274.06,1.9725e-05,2.6e-07,0.0,0 STARLINK-3849,1 52343U 22045N   24174.22348996  .00000026  00000-0  19725-4 0  9997,2 52343  53.2169 136.9479 0001538  86.0568 274.0600 15.08843448121226,6917.87,95.437,540.799,538.671,0.0
52343.0,STARLINK-3849,PAYLOAD,2024-06-22 06:57:12,15.08845077,0.0001506,53.2168,136.6501,88.0347,272.0817,2.8974e-05,1.73e-06,0.0,0 STARLINK-3849,1 52343U 22045N   24174.28972824  .00000173  00000-0  28974-4 0  9995,2 52343  53.2168 136.6501 0001506  88.0347 272.0817 15.08845077121239,6917.865,95.437,540.772,538.688,0.0
52343.0,STARLINK-3849,PAYLOAD,2024-06-22 21:15:41,15.08836076,0.0001515,53.2165,133.9732,88.1188,271.9977,2.278e-05,7.5e-07,0.0,0 STARLINK-3849,1 52343U 22045N   24174.88589419  .00000075  00000-0  22780-4 0  9995,2 52343  53.2165 133.9732 0001515  88.1188 271.9977 15.08836076121320,6917.892,95.438,540.805,538.709,0.0
52343.0,STARLINK-3849,PAYLOAD,2024-06-23 03:37:13,15.08839352,0.000157,53.2163,132.7858,82.9731,277.1439,4.9255e-05,4.96e-06,0.0,0 STARLINK-3849,1 52343U 22045N   24175.15085172  .00000496  00000-0  49255-4 0  9996,2 52343  53.2163 132.7858 0001570  82.9731 277.1439 15.08839352121366,6917.882,95.438,540.833,538.661,0.0
52343.0,STARLINK-3849,PAYLOAD,2024-06-24 03:28:00,15.08842989,0.0001582,53.2163,128.3256,88.0776,272.0397,2.7691e-05,1.53e-06,0.0,0 STARLINK-3849,1 52343U 22045N   24176.14444971  .00000153  00000-0  27691-4 0  9992,2 52343  53.2163 128.3256 0001582  88.0776 272.0397 15.08842989121512,6917.871,95.437,540.831,538.642,0.0
